[{"OBJECT_NAME":"TEVEL2-9","OBJECT_ID":"2025-052AD","EPOCH":"2026-04-25T03:39:33.704352","MEAN_MOTION":15.30249328,"ECCENTRICITY":0.00055154,"INCLINATION":97.3995,"RA_OF_ASC_NODE":10.6326,"ARG_OF_PERICENTER":350.3875,"MEAN_ANOMALY":9.7259,"EPHEMERIS_TYPE":0,"CLASSIFICATION_TYPE":"U","NORAD_CAT_ID":63237,"ELEMENT_SET_NO":999,"REV_AT_EPOCH":6191,"BSTAR":0.00060199895,"MEAN_MOTION_DOT":0.0001757,"MEAN_MOTION_DDOT":0},{"OBJECT_NAME":"TEVEL2-7","OBJECT_ID":"2025-052AE","EPOCH":"2026-04-25T10:41:34.940256","MEAN_MOTION":15.30004639,"ECCENTRICITY":0.0005559,"INCLINATION":97.4003,"RA_OF_ASC_NODE":10.8612,"ARG_OF_PERICENTER":349.4595,"MEAN_ANOMALY":10.6528,"EPHEMERIS_TYPE":0,"CLASSIFICATION_TYPE":"U","NORAD_CAT_ID":63238,"ELEMENT_SET_NO":999,"REV_AT_EPOCH":6195,"BSTAR":0.00061564,"MEAN_MOTION_DOT":0.00017835,"MEAN_MOTION_DDOT":0},{"OBJECT_NAME":"TEVEL2-8","OBJECT_ID":"2025-052AF","EPOCH":"2026-04-25T12:26:46.877568","MEAN_MOTION":15.29985941,"ECCENTRICITY":0.0005591,"INCLINATION":97.4001,"RA_OF_ASC_NODE":10.9126,"ARG_OF_PERICENTER":349.6203,"MEAN_ANOMALY":10.4921,"EPHEMERIS_TYPE":0,"CLASSIFICATION_TYPE":"U","NORAD_CAT_ID":63239,"ELEMENT_SET_NO":999,"REV_AT_EPOCH":6196,"BSTAR":0.00056286,"MEAN_MOTION_DOT":0.00016287,"MEAN_MOTION_DDOT":0},{"OBJECT_NAME":"HADES-ICM","OBJECT_ID":"2025-052BN","EPOCH":"2026-04-25T11:33:11.017728","MEAN_MOTION":15.76437982,"ECCENTRICITY":0.0002961,"INCLINATION":97.3834,"RA_OF_ASC_NODE":18.2341,"ARG_OF_PERICENTER":128.624,"MEAN_ANOMALY":231.5291,"EPHEMERIS_TYPE":0,"CLASSIFICATION_TYPE":"U","NORAD_CAT_ID":63492,"ELEMENT_SET_NO":999,"REV_AT_EPOCH":6246,"BSTAR":0.0022528,"MEAN_MOTION_DOT":0.00370429,"MEAN_MOTION_DDOT":0},{"OBJECT_NAME":"INNOSAT 16 (RS92S7)","OBJECT_ID":"2025-155C","EPOCH":"2026-04-25T12:21:16.910784","MEAN_MOTION":15.24849375,"ECCENTRICITY":0.0011151,"INCLINATION":97.4527,"RA_OF_ASC_NODE":82.8478,"ARG_OF_PERICENTER":22.1905,"MEAN_ANOMALY":337.9813,"EPHEMERIS_TYPE":0,"CLASSIFICATION_TYPE":"U","NORAD_CAT_ID":64878,"ELEMENT_SET_NO":999,"REV_AT_EPOCH":7264,"BSTAR":0.00027862,"MEAN_MOTION_DOT":6.861e-5,"MEAN_MOTION_DDOT":0},{"OBJECT_NAME":"GEOSCAN 6 (RS92S6)","OBJECT_ID":"2025-155D","EPOCH":"2026-04-25T12:29:37.038048","MEAN_MOTION":15.29098227,"ECCENTRICITY":0.000833,"INCLINATION":97.4522,"RA_OF_ASC_NODE":83.9233,"ARG_OF_PERICENTER":20.2236,"MEAN_ANOMALY":339.9333,"EPHEMERIS_TYPE":0,"CLASSIFICATION_TYPE":"U","NORAD_CAT_ID":64879,"ELEMENT_SET_NO":999,"REV_AT_EPOCH":7271,"BSTAR":0.00038985,"MEAN_MOTION_DOT":0.00010951,"MEAN_MOTION_DDOT":0},{"OBJECT_NAME":"GEOSCAN 1 (RS92S1)","OBJECT_ID":"2025-155E","EPOCH":"2026-04-25T11:26:19.775328","MEAN_MOTION":15.29605615,"ECCENTRICITY":0.0008288,"INCLINATION":97.4519,"RA_OF_ASC_NODE":83.985,"ARG_OF_PERICENTER":20.8957,"MEAN_ANOMALY":339.2621,"EPHEMERIS_TYPE":0,"CLASSIFICATION_TYPE":"U","NORAD_CAT_ID":64880,"ELEMENT_SET_NO":999,"REV_AT_EPOCH":7271,"BSTAR":0.0004118,"MEAN_MOTION_DOT":0.00011755,"MEAN_MOTION_DDOT":0},{"OBJECT_NAME":"239ALFEROV (RS61S)","OBJECT_ID":"2025-155F","EPOCH":"2026-04-25T12:22:39.065952","MEAN_MOTION":15.31461215,"ECCENTRICITY":0.000784,"INCLINATION":97.4522,"RA_OF_ASC_NODE":84.4219,"ARG_OF_PERICENTER":22.0305,"MEAN_ANOMALY":338.1272,"EPHEMERIS_TYPE":0,"CLASSIFICATION_TYPE":"U","NORAD_CAT_ID":64881,"ELEMENT_SET_NO":999,"REV_AT_EPOCH":7274,"BSTAR":0.00052809,"MEAN_MOTION_DOT":0.00015997,"MEAN_MOTION_DDOT":0},{"OBJECT_NAME":"GEOSCAN 2 (RS92S2)","OBJECT_ID":"2025-155Q","EPOCH":"2026-04-25T11:31:00.702336","MEAN_MOTION":15.29898357,"ECCENTRICITY":0.0007108,"INCLINATION":97.4517,"RA_OF_ASC_NODE":84.1192,"ARG_OF_PERICENTER":10.0004,"MEAN_ANOMALY":350.1376,"EPHEMERIS_TYPE":0,"CLASSIFICATION_TYPE":"U","NORAD_CAT_ID":64890,"ELEMENT_SET_NO":999,"REV_AT_EPOCH":7272,"BSTAR":0.00044706,"MEAN_MOTION_DOT":0.00012883,"MEAN_MOTION_DDOT":0},{"OBJECT_NAME":"GEOSCAN 5 (RS92S5)","OBJECT_ID":"2025-155R","EPOCH":"2026-04-25T12:22:41.899008","MEAN_MOTION":15.31787955,"ECCENTRICITY":0.0007039,"INCLINATION":97.4515,"RA_OF_ASC_NODE":84.5389,"ARG_OF_PERICENTER":30.5455,"MEAN_ANOMALY":329.6195,"EPHEMERIS_TYPE":0,"CLASSIFICATION_TYPE":"U","NORAD_CAT_ID":64891,"ELEMENT_SET_NO":999,"REV_AT_EPOCH":7275,"BSTAR":0.00050658,"MEAN_MOTION_DOT":0.00015495,"MEAN_MOTION_DDOT":0},{"OBJECT_NAME":"GEOSCAN 4 (RS92S4)","OBJECT_ID":"2025-155S","EPOCH":"2026-04-25T12:06:45.300672","MEAN_MOTION":15.31912669,"ECCENTRICITY":0.0007077,"INCLINATION":97.4518,"RA_OF_ASC_NODE":84.5626,"ARG_OF_PERICENTER":30.9972,"MEAN_ANOMALY":329.1686,"EPHEMERIS_TYPE":0,"CLASSIFICATION_TYPE":"U","NORAD_CAT_ID":64892,"ELEMENT_SET_NO":999,"REV_AT_EPOCH":7275,"BSTAR":0.00049671,"MEAN_MOTION_DOT":0.00015251,"MEAN_MOTION_DDOT":0},{"OBJECT_NAME":"GEOSCAN 3 (RS92S3)","OBJECT_ID":"2025-155T","EPOCH":"2026-04-25T12:03:26.591904","MEAN_MOTION":15.33554744,"ECCENTRICITY":0.0006922,"INCLINATION":97.4507,"RA_OF_ASC_NODE":84.8517,"ARG_OF_PERICENTER":34.322,"MEAN_ANOMALY":325.8469,"EPHEMERIS_TYPE":0,"CLASSIFICATION_TYPE":"U","NORAD_CAT_ID":64893,"ELEMENT_SET_NO":999,"REV_AT_EPOCH":7277,"BSTAR":0.00056384,"MEAN_MOTION_DOT":0.00018245,"MEAN_MOTION_DDOT":0},{"OBJECT_NAME":"INNOSAT 3 (RS92S0)","OBJECT_ID":"2025-155U","EPOCH":"2026-04-25T11:42:58.563648","MEAN_MOTION":15.40140194,"ECCENTRICITY":0.0006376,"INCLINATION":97.4469,"RA_OF_ASC_NODE":85.8832,"ARG_OF_PERICENTER":42.0994,"MEAN_ANOMALY":318.074,"EPHEMERIS_TYPE":0,"CLASSIFICATION_TYPE":"U","NORAD_CAT_ID":64894,"ELEMENT_SET_NO":999,"REV_AT_EPOCH":7284,"BSTAR":0.00085075,"MEAN_MOTION_DOT":0.00034145,"MEAN_MOTION_DDOT":0},{"OBJECT_NAME":"KNACKSAT-2","OBJECT_ID":"1998-067XZ","EPOCH":"2026-04-25T13:11:25.731168","MEAN_MOTION":15.55573732,"ECCENTRICITY":0.001231,"INCLINATION":51.6296,"RA_OF_ASC_NODE":198.3227,"ARG_OF_PERICENTER":2.8014,"MEAN_ANOMALY":357.3044,"EPHEMERIS_TYPE":0,"CLASSIFICATION_TYPE":"U","NORAD_CAT_ID":67683,"ELEMENT_SET_NO":999,"REV_AT_EPOCH":1207,"BSTAR":0.00055505,"MEAN_MOTION_DOT":0.0003856,"MEAN_MOTION_DDOT":0}]
