TEVEL2-9                
1 63237U 25052AD  26115.15247343  .00017570  00000+0  60200-3 0  9999
2 63237  97.3995  10.6326 0005515 350.3875   9.7259 15.30249328 61916
TEVEL2-7                
1 63238U 25052AE  26115.44554329  .00017835  00000+0  61564-3 0  9995
2 63238  97.4003  10.8612 0005559 349.4595  10.6528 15.30004639 61952
TEVEL2-8                
1 63239U 25052AF  26115.51859812  .00016287  00000+0  56286-3 0  9994
2 63239  97.4001  10.9126 0005591 349.6203  10.4921 15.29985941 61964
HADES-ICM               
1 63492U 25052BN  26115.48137752  .00370429  00000+0  22528-2 0  9995
2 63492  97.3834  18.2341 0002961 128.6240 231.5291 15.76437982 62463
INNOSAT 16 (RS92S7)     
1 64878U 25155C   26115.51477906  .00006861  00000+0  27862-3 0  9993
2 64878  97.4527  82.8478 0011151  22.1905 337.9813 15.24849375 72645
GEOSCAN 6 (RS92S6)      
1 64879U 25155D   26115.52056757  .00010951  00000+0  38985-3 0  9995
2 64879  97.4522  83.9233 0008330  20.2236 339.9333 15.29098227 72717
GEOSCAN 1 (RS92S1)      
1 64880U 25155E   26115.47661777  .00011755  00000+0  41180-3 0  9999
2 64880  97.4519  83.9850 0008288  20.8957 339.2621 15.29605615 72716
239ALFEROV (RS61S)      
1 64881U 25155F   26115.51572993  .00015997  00000+0  52809-3 0  9998
2 64881  97.4522  84.4219 0007840  22.0305 338.1272 15.31461215 72742
GEOSCAN 2 (RS92S2)      
1 64890U 25155Q   26115.47986924  .00012883  00000+0  44706-3 0  9994
2 64890  97.4517  84.1192 0007108  10.0004 350.1376 15.29898357 72728
GEOSCAN 5 (RS92S5)      
1 64891U 25155R   26115.51576272  .00015495  00000+0  50658-3 0  9996
2 64891  97.4515  84.5389 0007039  30.5455 329.6195 15.31787955 72756
GEOSCAN 4 (RS92S4)      
1 64892U 25155S   26115.50469098  .00015251  00000+0  49671-3 0  9996
2 64892  97.4518  84.5626 0007077  30.9972 329.1686 15.31912669 72756
GEOSCAN 3 (RS92S3)      
1 64893U 25155T   26115.50239111  .00018245  00000+0  56384-3 0  9993
2 64893  97.4507  84.8517 0006922  34.3220 325.8469 15.33554744 72771
INNOSAT 3 (RS92S0)      
1 64894U 25155U   26115.48817782  .00034145  00000+0  85075-3 0  9993
2 64894  97.4469  85.8832 0006376  42.0994 318.0740 15.40140194 72849
KNACKSAT-2              
1 67683U 98067XZ  26115.54960337  .00038560  00000+0  55505-3 0  9996
2 67683  51.6296 198.3227 0012310   2.8014 357.3044 15.55573732 12074
